#cP2022 12 19  0  0  0.00000000      96 ORBIT IGS20 HLM  IGS
## 2241  86400.00000000   900.00000000 59932 0.0000000000000
+   31   G01G02G03G04G05G06G07G08G09G10G11G12G13G14G15G16G17
+        G18G19G20G21G22G23G24G25G26G27G29G30G31G32  0  0  0
+          0  0  0  0  0  0  0  0  0  0  0  0  0  0  0  0  0
+          0  0  0  0  0  0  0  0  0  0  0  0  0  0  0  0  0
+          0  0  0  0  0  0  0  0  0  0  0  0  0  0  0  0  0
++         2  2  2  2  2  2  2  2  2  2  2  2  2  3  2  2  2
++         2  2  3  2  2  3  2  2  2  2  2  2  2  2  0  0  0
++         0  0  0  0  0  0  0  0  0  0  0  0  0  0  0  0  0
++         0  0  0  0  0  0  0  0  0  0  0  0  0  0  0  0  0
++         0  0  0  0  0  0  0  0  0  0  0  0  0  0  0  0  0
%c G  cc GPS ccc cccc cccc cccc cccc ccccc ccccc ccccc ccccc
%c cc cc ccc ccc cccc cccc cccc cccc ccccc ccccc ccccc ccccc
%f  1.2500000  1.025000000  0.00000000000  0.000000000000000
%f  0.0000000  0.000000000  0.00000000000  0.000000000000000
%i    0    0    0    0      0      0      0      0         0
%i    0    0    0    0      0      0      0      0         0
/* RAPID ORBIT COMBINATION FROM WEIGHTED AVERAGE OF:        
/* cod emr esa gfz grg jpl ngs sio usn whu                  
/* REFERENCED TO IGS TIME (IGST) AND TO WEIGHTED MEAN POLE: 
/* PCV:IGS20_2233 OL/AL:FES2014b NONE     Y  ORB:CMB CLK:CMB
*  2022 12 19  5 15  0.00000000
PG01  22392.878351  14520.260813   1491.723918    235.784379  6  5  4  90       
PG02 -23782.290084 -10864.764771  -3327.290699   -632.255131  5  6  6 116       
PG03  12421.002636  12612.051587  19715.197276   -375.198629  6  2  4 109       
PG04  20283.512838   3817.482582  16779.721896    -65.810378  6  4  5 104       
PG05  -6498.736195 -23598.977614 -10330.864939   -108.626838  3  3  4  90       
PG06   6715.128701 -13106.208031  22167.783787    542.966679  5  5  3  87       
PG07  22380.056315   3290.200570 -13875.317143    272.297934  7  7  5  83       
PG08  10909.486098  11288.622431 -21511.285960    -99.353575  3  6  5  93       
PG09  24582.493570  -6371.333686   7784.082049   -251.107587  5  3  4 106       
PG10 -11275.660099  18717.770175 -14707.008796    -16.724431  6  6  3 126       
PG11  -5694.575751 -19365.821413  17290.565462    -59.910166  6  9  8  52       
PG12 -11181.589290 -14445.135535  19045.959053   -317.662083  7  8  8  49       
PG13  -2178.056153 -15108.729394 -21898.976528    444.455545  5  5  5 100       
PG14  13272.380125 -16426.111026 -16029.792679    -65.662715  7  5  6  93       
PG15 -12623.843090 -10629.187573 -21294.817938     -2.860315  3  8  4  97       
PG16    946.363104  25357.761582  -7263.339542   -525.891076  6 10  6  93       
PG17  22346.903881 -13404.967453   5803.250227    687.028777  5  6  3 105       
PG18 -20828.294193   -933.193383 -16536.247046    -64.680514  8  4  8 139       
PG19  14548.061447 -16015.399418  14994.525443    252.450972  5  7  6 106       
PG20   -615.342615 -26560.618086   2499.007635    462.638387  5  7  4  61       
PG21  20311.341150  16390.011496  -6181.831653    153.485672  1  3  4  91       
PG22 -11091.895059  17190.812231  17268.899253    387.713421  6  7  6  66       
PG23 -14558.141853   7678.064804 -20816.001742      0.357412  8  8  8 118       
PG24 -21935.645221 -15098.983770  -3269.434710      9.129134  8  7  6 112       
PG25 -14969.879236  -3290.236856  21404.328453    403.380376  7  9  6  95       
PG26  -4427.572227  25358.529732   5667.528007    238.697970  4  6  8 101       
PG27  -1303.699026  16551.143732 -20860.231579    149.403832  2  7  5 105       
PG29 -24562.723310   2567.904549   9833.976595   -574.977145  5  6  7 112       
PG30  14938.792148  -7956.464814 -20430.584840   -535.138872  8  2  8  98       
PG31  -5874.800242  14377.795813  21337.876030   -203.706720  7  5  4 126       
PG32 -19743.294276  15872.460451   7784.954806   -334.674644  4  4  6  78       
*  2022 12 19  5 30  0.00000000
PG01  22344.649966  14665.912792  -1398.792820    235.779730  6  6  4  73       
PG02 -23916.370672 -11226.299709   -457.464412   -632.253284  5  6  6 103       
PG03  12231.332083  14796.131536  18281.492482   -375.198244  6     4 104       
PG04  18533.862759   4820.079389  18452.297845    -65.803864  5  4  5 103       
PG05  -6273.862034 -24614.071467  -7719.014554   -108.628303  3  3  4  69       
PG06   8834.369301 -11750.339561  22191.916042    542.973357  5  5  3  89       
PG07  23537.804794   4276.055454 -11617.409574    272.292682  6  7  5  88       
PG08   8761.492290  12498.481137 -21789.576634    -99.354119  4  6  4  81       
PG09  23783.951949  -5649.666322  10363.317496   -251.102063  5  4  4 105       
PG10 -11374.706028  16878.815280 -16725.116950    -16.726580  6  6  2 131       
PG11  -3930.363687 -18282.240574  18885.235994    -59.917042  6  9  8  49       
PG12 -10818.592487 -16555.144072  17507.178789   -317.666384  7  8  8  51       
PG13    132.145691 -15898.047619 -21422.801406    444.461366  5  5  4  95       
PG14  13310.868971 -14474.804277 -17792.059042    -65.656816  7  4  6 108       
PG15 -10708.131268 -12021.856728 -21582.896626     -2.857177  3  8  5  95       
PG16    606.003762  25965.806148  -4474.122465   -525.890537  6 10  5  64       
PG17  22838.569938 -13410.467283   2979.498180    687.031304  5  6  3  93       
PG18 -22224.300101  -2029.826628 -14508.583937    -64.693758  7  5  8 136       
PG19  16132.445103 -16441.649706  12757.985958    252.455443  5  7  6 103       
PG20   -289.136583 -26158.043680   5266.963524    462.636144  5  7  4  73       
PG21  19411.443471  16140.110112  -8820.200817    153.485084  2  4  4 103       
PG22 -12816.109158  17740.028687  15351.625833    387.720191  6  7  7  59       
PG23 -14593.217725   5254.800179 -21544.170568      0.358092  8  7  7 120       
PG24 -21370.454536 -15130.247682  -5980.662177      9.113563  7  7  6 106       
PG25 -14863.073363  -5776.490917  20978.909493    403.383588  7  9  6  68       
PG26  -4781.657883  24542.680932   8334.393208    238.698678  4  6  8 105       
PG27  -3372.950904  17530.951061 -19751.889005    149.395012  3  7  5 107       
PG29 -23466.634452   1905.421109  12326.603558   -574.979423  5  7  7 114       
PG30  16813.283350  -6615.090457 -19455.964787   -535.138256  7  3  8 103       
PG31  -7973.873172  13030.066680  21560.697876   -203.707600  7  5  4 126       
PG32 -20502.429345  15981.997740   5049.622356   -334.686472  4  4  6  74       
*  2022 12 19  5 45  0.00000000
PG01  22024.852177  14651.856231  -4265.809977    235.775109  6  6  4  82       
PG02 -23772.614964 -11440.348891   2420.423702   -632.251347  5  5  6 100       
PG03  12157.890871  16804.780625  16531.380120   -375.197918  6     4 104       
PG04  16689.073138   5996.915053  19808.536840    -65.797334  5  3  5 109       
PG05  -6082.005987 -25337.701041  -4974.144327   -108.629444  4  5  4  86       
PG06  11010.005858 -10526.213930  21836.745495    542.980098  5  5  3  95       
PG07  24509.589661   5066.997100  -9160.293037    272.287790  6  6  4  88       
PG08   6667.824413  13826.608621 -21694.778209    -99.355298  4  6  4  98       
PG09  22784.934819  -4736.721594  12764.014943   -251.096539  5  4  4 106       
PG10 -11577.090315  14834.262556 -18448.289664    -16.727376  6  6  2 129       
PG11  -1973.623419 -17207.484353  20155.549287    -59.923840  6  9  8  44       
PG12 -10578.173855 -18486.018610  15662.046322   -317.670719  6  7  8  81       
PG13   2330.690343 -16781.795142 -20582.849972    444.467363  4  6  4 103       
PG14  13444.343819 -12346.511046 -19246.731915    -65.650956  7  3  5  98       
PG15  -8851.118090 -13515.390266 -21514.493122     -2.854453  3  7  5  93       
PG16    317.477372  26268.936549  -1606.131300   -525.889847  5 10  5  88       
PG17  23046.426792 -13290.926257    105.031676    687.034163  5  5  4  98       
PG18 -23466.527706  -2927.058424 -12232.858831    -64.707020  7  6  8 129       
PG19  17446.878969 -16838.417476  10296.121285    252.459828  5  7  5 105       
PG20    112.328299 -25471.322518   7945.525576    462.633213  5  7  4  78       
PG21  18230.142477  15823.880904 -11309.755904    153.483800  2  4  4  98       
PG22 -14307.438995  18277.101793  13175.253837    387.727326  6  8  7  68       
PG23 -14761.412485   2776.824805 -21901.073355      0.358783  8  6  7 113       
PG24 -20538.890370 -15066.263906  -8592.359133      9.098042  7  7  7 107       
PG25 -14880.162960  -8191.630234  20183.879670    403.386827  6  9  7  78       
PG26  -5197.414043  23450.236324  10854.472412    238.699385  4  6  9 105       
PG27  -5267.815735  18546.841641 -18306.119604    149.386242  2  7  6 113       
PG29 -22166.889485   1060.899215  14607.448468   -574.982051  6  7  7  95       
PG30  18636.144897  -5431.078296 -18146.217089   -535.137632  7  4  8  90       
PG31 -10137.822426  11790.596011  21406.785497   -203.708960  7  5  4 124       
PG32 -20987.266618  15964.188002   2226.620818   -334.698250  4  4  6  78       
EOF
